     2.100          NAVIGATION                              RINEX VERSION / TYPE
fic2rin                                 10/15/2012 00:19:42 PGM / RUN BY / DATE
                                                            END OF HEADER
13 12 10 14 16  0  0.0  .174424611032D-03 -.261479726760D-11  .000000000000D+00
     .770000000000D+02 -.513750000000D+02  .438839708007D-08  .275767523652D+01
    -.255182385445D-05  .478387030307D-02  .224635004997D-05  .515359934044D+04
     .576000000000D+05 -.204890966415D-07 -.154590456502D+01  .521540641785D-07
     .983780620560D+00  .348750000000D+03  .207997135870D+01 -.826570144250D-08
    -.278940190407D-09  .100000000000D+01  .171000000000D+04  .000000000000D+00
     .240000000000D+01  .000000000000D+00 -.111758708954D-07  .770000000000D+02
     .504060000000D+05  .400000000000D+01
14 12 10 14 16  0  0.0  .214816071093D-03  .795807864051D-12  .000000000000D+00
     .840000000000D+02 -.425625000000D+02  .439482591928D-08  .299642977077D+01
    -.216439366341D-05  .684756122064D-02  .185519456863D-05  .515365270424D+04
     .576000000000D+05  .298023223877D-07 -.157360044085D+01 -.111758708954D-06
     .976554438692D+00  .350000000000D+03 -.203653514995D+01 -.827034449304D-08
    -.169649923743D-09  .100000000000D+01  .171000000000D+04  .000000000000D+00
     .240000000000D+01  .000000000000D+00 -.884756445885D-08  .840000000000D+02
     .504060000000D+05  .400000000000D+01
15 12 10 14 16  0  0.0 -.972985289991D-04 -.795807864051D-12  .000000000000D+00
     .420000000000D+02 -.121250000000D+02  .537486674192D-08  .258699207842D+01
    -.651925802231D-06  .476569263265D-02  .828877091408D-06  .515364191055D+04
     .576000000000D+05 -.167638063431D-07 -.166610941294D+01  .502914190292D-07
     .943312637489D+00  .355156250000D+03  .398176633198D-01 -.882679624292D-08
    -.814319633967D-10  .100000000000D+01  .171000000000D+04  .000000000000D+00
     .240000000000D+01  .000000000000D+00 -.102445483208D-07  .420000000000D+02
     .504060000000D+05  .400000000000D+01
16 12 10 14 16  0  0.0 -.247910618782D-03 -.682121026330D-12  .000000000000D+00
     .120000000000D+02  .697187500000D+02  .417338812408D-08 -.212149379118D+01
     .339932739735D-05  .652606354561D-02  .999495387077D-05  .515376165771D+04
     .576000000000D+05 -.558793544769D-07  .498056221058D+00 -.633299350739D-07
     .982374181359D+00  .201843750000D+03  .278510680402D-01 -.783461205733D-08
     .773960810003D-09  .100000000000D+01  .171000000000D+04  .000000000000D+00
     .240000000000D+01  .000000000000D+00 -.977888703346D-08  .120000000000D+02
     .504060000000D+05  .400000000000D+01
17 12 10 14 16  0  0.0  .879066064954D-04 -.341060513165D-11  .000000000000D+00
     .930000000000D+02 -.265312500000D+02  .513914263735D-08 -.303358635099D+01
    -.135414302349D-05  .760539667681D-02  .380352139473D-05  .515373700142D+04
     .576000000000D+05  .186264514923D-07  .153739202758D+01 -.137835741043D-06
     .963337213765D+00  .305781250000D+03 -.229577118246D+01 -.836820571221D-08
    -.212866009581D-09  .100000000000D+01  .171000000000D+04  .000000000000D+00
     .240000000000D+01  .000000000000D+00 -.107102096081D-07  .930000000000D+02
     .504060000000D+05  .400000000000D+01
18 12 10 14 16  0  0.0  .219665002078D-03  .181898940355D-11  .000000000000D+00
     .150000000000D+02  .119750000000D+03  .506128225129D-08 -.157750160596D+01
     .623986124992D-05  .136162367417D-01  .813603401184D-05  .515374441910D+04
     .576000000000D+05  .329688191414D-06 -.268335775754D+01  .149011611938D-07
     .929063666179D+00  .207218750000D+03 -.213898217806D+01 -.834713340590D-08
     .331085219600D-09  .100000000000D+01  .171000000000D+04  .000000000000D+00
     .240000000000D+01  .000000000000D+00 -.107102096081D-07  .150000000000D+02
     .504060000000D+05  .400000000000D+01
19 12 10 14 16  0  0.0 -.312857795507D-03 -.352429196937D-11  .000000000000D+00
     .840000000000D+02 -.348750000000D+02  .519950229443D-08  .243653811642D+01
    -.177510082722D-05  .862714170944D-02  .440143048763D-05  .515361963844D+04
     .576000000000D+05 -.244006514549D-06  .159004385511D+01  .167638063431D-07
     .960664658465D+00  .295968750000D+03  .263406744657D+00 -.840499295884D-08
    -.262868092368D-09  .100000000000D+01  .171000000000D+04  .000000000000D+00
     .240000000000D+01  .000000000000D+00 -.144354999065D-07  .840000000000D+02
     .504060000000D+05  .400000000000D+01
22 12 10 14 16  0  0.0  .149399973452D-03  .795807864051D-12  .000000000000D+00
     .990000000000D+02  .129312500000D+03  .512985653626D-08 -.232306129164D+01
     .666454434395D-05  .624824094120D-02  .828504562378D-05  .515367926407D+04
     .576000000000D+05  .242143869400D-07 -.268027671016D+01 -.540167093277D-07
     .926793767378D+00  .203375000000D+03 -.200482214642D+01 -.834891919457D-08
     .355014787791D-09  .100000000000D+01  .171000000000D+04  .000000000000D+00
     .340000000000D+01  .000000000000D+00 -.172294676304D-07  .990000000000D+02
     .504060000000D+05  .400000000000D+01
23 12 10 14 16  0  0.0  .154446810484D-03 -.386535248253D-11  .000000000000D+00
     .720000000000D+02 -.357812500000D+02  .504985320380D-08  .205341439092D+01
    -.182352960110D-05  .822975661140D-02  .181794166565D-05  .515356905556D+04
     .576000000000D+05 -.160187482834D-06 -.162827901997D+01  .987201929092D-07
     .958123407377D+00  .345968750000D+03 -.292197932862D+01 -.868000441417D-08
    -.245010205659D-09  .100000000000D+01  .171000000000D+04  .000000000000D+00
     .240000000000D+01  .000000000000D+00 -.204890966415D-07  .720000000000D+02
     .504060000000D+05  .400000000000D+01
24 12 10 14 16  0  0.0  .100443139672D-05  .159161572810D-11  .000000000000D+00
     .400000000000D+02 -.925312500000D+02  .415374444870D-08  .278958061232D+00
    -.481307506561D-05  .737763475627D-04  .116601586342D-04  .517666627884D+04
     .576000000000D+05 -.931322574615D-08 -.601918075275D+00  .111758708954D-07
     .959569867628D+00  .144093750000D+03 -.108323649468D+01 -.773139347214D-08
    -.226795161215D-09  .100000000000D+01  .171000000000D+04  .000000000000D+00
     .240000000000D+01  .630000000000D+02  .465661287308D-08  .400000000000D+02
     .504060000000D+05  .400000000000D+01
25 12 10 14 16  0  0.0  .465004704893D-04  .159161572810D-11  .000000000000D+00
     .230000000000D+02  .537812500000D+02  .434339520556D-08 -.103520600780D+01
     .287964940071D-05  .180509965867D-02  .102408230305D-04  .515364888191D+04
     .576000000000D+05 -.372529029846D-08  .444142641307D+00 -.167638063431D-07
     .970482273899D+00  .189218750000D+03  .747823077421D+00 -.796354599937D-08
     .683957060986D-09  .100000000000D+01  .171000000000D+04  .000000000000D+00
     .240000000000D+01  .000000000000D+00  .512227416039D-08  .230000000000D+02
     .504060000000D+05  .400000000000D+01
26 12 10 14 16  0  0.0 -.246505718678D-03  .134150468512D-10  .000000000000D+00
     .640000000000D+02 -.428437500000D+02  .438589697593D-08  .190957678606D+01
    -.268034636974D-05  .208162828349D-01  .169686973095D-05  .515365630913D+04
     .576000000000D+05 -.745058059692D-08 -.155246538541D+01 -.420957803726D-06
     .981285656201D+00  .359937500000D+03  .120867511490D+01 -.831606068302D-08
    -.178221709364D-09  .100000000000D+01  .171000000000D+04  .000000000000D+00
     .340000000000D+01  .000000000000D+00 -.605359673500D-08  .640000000000D+02
     .504060000000D+05  .400000000000D+01
27 12 10 14 16  0  0.0  .441974028945D-03  .409272615798D-11  .000000000000D+00
     .930000000000D+02 -.117718750000D+03  .373765568836D-08  .271122942200D+01
    -.607222318649D-05  .218242129777D-01  .109970569611D-04  .515367435074D+04
     .576000000000D+05  .273808836937D-06 -.628619977277D+00  .178813934326D-06
     .982090558117D+00  .173625000000D+03 -.102428519121D+01 -.743566686823D-08
    -.386087510666D-09  .100000000000D+01  .171000000000D+04  .000000000000D+00
     .485000000000D+01  .630000000000D+02 -.419095158577D-08  .930000000000D+02
     .504060000000D+05  .400000000000D+01
28 12 10 14 16  0  0.0  .194928143173D-03  .363797880709D-11  .000000000000D+00
     .490000000000D+02  .640625000000D+02  .410445668138D-08 -.236854170311D+01
     .320002436638D-05  .181665294804D-01  .987201929092D-05  .515363074875D+04
     .576000000000D+05  .270083546638D-06  .504596221201D+00  .502914190292D-07
     .980761978342D+00  .193062500000D+03 -.181867352749D+01 -.755138597411D-08
     .887536969477D-09  .100000000000D+01  .171000000000D+04  .000000000000D+00
     .240000000000D+01  .000000000000D+00 -.107102096081D-07  .490000000000D+02
     .504060000000D+05  .400000000000D+01
29 12 10 14 16  0  0.0  .366069842130D-03  .409272615798D-11  .000000000000D+00
     .630000000000D+02 -.280625000000D+02  .519557355935D-08 -.235514021487D+00
    -.136904418468D-05  .177316821646D-02  .365450978279D-05  .515376229286D+04
     .576000000000D+05  .689178705215D-07  .154604615354D+01  .186264514923D-07
     .963914721157D+00  .312187500000D+03 -.106997914191D+01 -.859785813530D-08
    -.140720147273D-09  .100000000000D+01  .171000000000D+04  .000000000000D+00
     .240000000000D+01  .000000000000D+00 -.931322574615D-08  .630000000000D+02
     .504060000000D+05  .400000000000D+01
30 12 10 14 16  0  0.0 -.364995095879D-03  .162572177942D-10  .000000000000D+00
     .119000000000D+03  .652187500000D+02  .443875632059D-08  .311384525085D+01
     .314041972160D-05  .110691351583D-01  .109691172838D-04  .515372583961D+04
     .576000000000D+05  .132247805595D-06  .352012768345D+00  .223517417908D-07
     .961704676186D+00  .165062500000D+03  .161393155624D+01 -.780961101593D-08
     .639669501945D-09  .100000000000D+01  .171000000000D+04  .000000000000D+00
     .136500000000D+02  .000000000000D+00 -.465661287308D-08  .119000000000D+03
     .504060000000D+05  .400000000000D+01
